ASTRA 5B                
1 39617U 14011B   26072.64614312  .00000137  00000+0  00000+0 0  9996
2 39617   0.0979 295.8843 0003417  40.8961  90.6232  1.00275464 43700
IRNSS-1B                
1 39635U 14017A   26073.06136112  .00000122  00000+0  00000+0 0  9990
2 39635  29.0936 242.0261 0021487 179.8504 186.8325  1.00274217 43846
CTS DEB [ARRAY COVER]   
1 39688U 76004E   26073.68718965  .00000000  00000+0  00000+0 0  9997
2 39688   3.4776 267.7793 0037972 168.0069 223.5158  1.00306817 41830
LUCH-5V                 
1 39727U 14023A   26073.94377000 -.00000266  00000+0  00000+0 0  9999
2 39727   4.8997  70.6625 0003159 298.2232 238.0974  1.00268718 43417
KAZSAT-3                
1 39728U 14023B   26072.65307648  .00000061  00000+0  00000+0 0  9990
2 39728   0.0409  61.8402 0001043  33.7141   9.3237  1.00270690 41501
EUTELSAT 3B             
1 39773U 14030A   26073.90739228  .00000019  00000+0  00000+0 0  9993
2 39773   0.0633 356.5856 0000289 305.8587 199.8137  1.00272585 43124
ASIASAT 8 (AMOS-7)      
1 40107U 14046A   26072.74450285 -.00000333  00000+0  00000+0 0  9997
2 40107   0.0176 235.8456 0001435 147.7122 161.0998  1.00268773101198
ASIASAT 6               
1 40141U 14052A   26072.80783491 -.00000362  00000+0  00000+0 0  9999
2 40141   0.0185  99.6087 0000896 285.5409 196.9911  1.00270171 42125
OPTUS 10                
1 40146U 14054A   26073.88466308 -.00000148  00000+0  00000+0 0  9992
2 40146   0.0053 170.4487 0001993 186.9921 289.5246  1.00272314 42084
MEASAT-3B               
1 40147U 14054B   26072.44568472 -.00000242  00000+0  00000+0 0  9994
2 40147   0.0399  19.3298 0003850  19.1757  24.5061  1.00271295 41940
HIMAWARI-8              
1 40267U 14060A   26073.88162973 -.00000276  00000+0  00000+0 0  9996
2 40267   0.0044 138.8596 0000266 193.9436 297.7504  1.00271352 41817
IRNSS-1C                
1 40269U 14061A   26073.58492885 -.00000158  00000+0  00000+0 0  9993
2 40269   6.2752  90.7645 0020133 356.7697  18.1080  1.00268237 41741
INTELSAT 30 (IS-30)     
1 40271U 14062A   26072.66324493 -.00000151  00000+0  00000+0 0  9997
2 40271   0.0155  82.4752 0001692  30.1295 202.3988  1.00272886  5835
ARSAT 1                 
1 40272U 14062B   26072.45169633 -.00000260  00000+0  00000+0 0  9999
2 40272   0.0047 192.8909 0001346 158.1554 270.8211  1.00270188 41664
EUTELSAT 53A            
1 40277U 14064A   26072.58064560  .00000098  00000+0  00000+0 0  9991
2 40277   0.0185 198.7088 0001313 191.0241  43.4900  1.00271854 40601
GSAT-16                 
1 40332U 14078A   26073.90183736  .00000000  00000+0  00000+0 0  9995
2 40332   0.0268 150.2012 0005481 285.7961 116.2639  1.00271911 41169
DIRECTV 14              
1 40333U 14078B   26073.90537651  .00000000  00000+0  00000+0 0  9995
2 40333   0.0255 141.7466 0000677 340.4304 277.0394  1.00267456 41091
