[{"OBJECT_NAME":"ASTRA 5B","OBJECT_ID":"2014-011B","EPOCH":"2026-03-13T15:30:26.765568","MEAN_MOTION":1.00275464,"ECCENTRICITY":0.00034177,"INCLINATION":0.0979,"RA_OF_ASC_NODE":295.8843,"ARG_OF_PERICENTER":40.8961,"MEAN_ANOMALY":90.6232,"EPHEMERIS_TYPE":0,"CLASSIFICATION_TYPE":"U","NORAD_CAT_ID":39617,"ELEMENT_SET_NO":999,"REV_AT_EPOCH":4370,"BSTAR":0,"MEAN_MOTION_DOT":1.37e-6,"MEAN_MOTION_DDOT":0},{"OBJECT_NAME":"IRNSS-1B","OBJECT_ID":"2014-017A","EPOCH":"2026-03-14T01:28:21.600768","MEAN_MOTION":1.00274217,"ECCENTRICITY":0.00214871,"INCLINATION":29.0936,"RA_OF_ASC_NODE":242.0261,"ARG_OF_PERICENTER":179.8504,"MEAN_ANOMALY":186.8325,"EPHEMERIS_TYPE":0,"CLASSIFICATION_TYPE":"U","NORAD_CAT_ID":39635,"ELEMENT_SET_NO":999,"REV_AT_EPOCH":4384,"BSTAR":0,"MEAN_MOTION_DOT":1.22e-6,"MEAN_MOTION_DDOT":0},{"OBJECT_NAME":"CTS DEB [ARRAY COVER]","OBJECT_ID":"1976-004E","EPOCH":"2026-03-14T16:29:33.185760","MEAN_MOTION":1.00306817,"ECCENTRICITY":0.00379729,"INCLINATION":3.4776,"RA_OF_ASC_NODE":267.7793,"ARG_OF_PERICENTER":168.0069,"MEAN_ANOMALY":223.5158,"EPHEMERIS_TYPE":0,"CLASSIFICATION_TYPE":"U","NORAD_CAT_ID":39688,"ELEMENT_SET_NO":999,"REV_AT_EPOCH":4183,"BSTAR":0,"MEAN_MOTION_DOT":0,"MEAN_MOTION_DDOT":0},{"OBJECT_NAME":"LUCH-5V","OBJECT_ID":"2014-023A","EPOCH":"2026-03-14T22:39:01.728000","MEAN_MOTION":1.00268718,"ECCENTRICITY":0.0003159,"INCLINATION":4.8997,"RA_OF_ASC_NODE":70.6625,"ARG_OF_PERICENTER":298.2232,"MEAN_ANOMALY":238.0974,"EPHEMERIS_TYPE":0,"CLASSIFICATION_TYPE":"U","NORAD_CAT_ID":39727,"ELEMENT_SET_NO":999,"REV_AT_EPOCH":4341,"BSTAR":0,"MEAN_MOTION_DOT":-2.66e-6,"MEAN_MOTION_DDOT":0},{"OBJECT_NAME":"KAZSAT-3","OBJECT_ID":"2014-023B","EPOCH":"2026-03-13T15:40:25.807872","MEAN_MOTION":1.0027069,"ECCENTRICITY":0.00010438,"INCLINATION":0.0409,"RA_OF_ASC_NODE":61.8402,"ARG_OF_PERICENTER":33.7141,"MEAN_ANOMALY":9.3237,"EPHEMERIS_TYPE":0,"CLASSIFICATION_TYPE":"U","NORAD_CAT_ID":39728,"ELEMENT_SET_NO":999,"REV_AT_EPOCH":4150,"BSTAR":0,"MEAN_MOTION_DOT":6.1e-7,"MEAN_MOTION_DDOT":0},{"OBJECT_NAME":"EUTELSAT 3B","OBJECT_ID":"2014-030A","EPOCH":"2026-03-14T21:46:38.692992","MEAN_MOTION":1.00272585,"ECCENTRICITY":2.899e-5,"INCLINATION":0.0633,"RA_OF_ASC_NODE":356.5856,"ARG_OF_PERICENTER":305.8587,"MEAN_ANOMALY":199.8137,"EPHEMERIS_TYPE":0,"CLASSIFICATION_TYPE":"U","NORAD_CAT_ID":39773,"ELEMENT_SET_NO":999,"REV_AT_EPOCH":4312,"BSTAR":0,"MEAN_MOTION_DOT":1.9e-7,"MEAN_MOTION_DDOT":0},{"OBJECT_NAME":"ASIASAT 8 (AMOS-7)","OBJECT_ID":"2014-046A","EPOCH":"2026-03-13T17:52:05.046240","MEAN_MOTION":1.00268773,"ECCENTRICITY":0.00014359,"INCLINATION":0.0176,"RA_OF_ASC_NODE":235.8456,"ARG_OF_PERICENTER":147.7122,"MEAN_ANOMALY":161.0998,"EPHEMERIS_TYPE":0,"CLASSIFICATION_TYPE":"U","NORAD_CAT_ID":40107,"ELEMENT_SET_NO":999,"REV_AT_EPOCH":10119,"BSTAR":0,"MEAN_MOTION_DOT":-3.33e-6,"MEAN_MOTION_DDOT":0},{"OBJECT_NAME":"ASIASAT 6","OBJECT_ID":"2014-052A","EPOCH":"2026-03-13T19:23:16.936224","MEAN_MOTION":1.00270171,"ECCENTRICITY":8.96e-5,"INCLINATION":0.0185,"RA_OF_ASC_NODE":99.6087,"ARG_OF_PERICENTER":285.5409,"MEAN_ANOMALY":196.9911,"EPHEMERIS_TYPE":0,"CLASSIFICATION_TYPE":"U","NORAD_CAT_ID":40141,"ELEMENT_SET_NO":999,"REV_AT_EPOCH":4212,"BSTAR":0,"MEAN_MOTION_DOT":-3.62e-6,"MEAN_MOTION_DDOT":0},{"OBJECT_NAME":"OPTUS 10","OBJECT_ID":"2014-054A","EPOCH":"2026-03-14T21:13:54.890112","MEAN_MOTION":1.00272314,"ECCENTRICITY":0.00019935,"INCLINATION":0.0053,"RA_OF_ASC_NODE":170.4487,"ARG_OF_PERICENTER":186.9921,"MEAN_ANOMALY":289.5246,"EPHEMERIS_TYPE":0,"CLASSIFICATION_TYPE":"U","NORAD_CAT_ID":40146,"ELEMENT_SET_NO":999,"REV_AT_EPOCH":4208,"BSTAR":0,"MEAN_MOTION_DOT":-1.48e-6,"MEAN_MOTION_DDOT":0},{"OBJECT_NAME":"MEASAT-3B","OBJECT_ID":"2014-054B","EPOCH":"2026-03-13T10:41:47.159808","MEAN_MOTION":1.00271295,"ECCENTRICITY":0.00038505,"INCLINATION":0.0399,"RA_OF_ASC_NODE":19.3298,"ARG_OF_PERICENTER":19.1757,"MEAN_ANOMALY":24.5061,"EPHEMERIS_TYPE":0,"CLASSIFICATION_TYPE":"U","NORAD_CAT_ID":40147,"ELEMENT_SET_NO":999,"REV_AT_EPOCH":4194,"BSTAR":0,"MEAN_MOTION_DOT":-2.42e-6,"MEAN_MOTION_DDOT":0},{"OBJECT_NAME":"HIMAWARI-8","OBJECT_ID":"2014-060A","EPOCH":"2026-03-14T21:09:32.808672","MEAN_MOTION":1.00271352,"ECCENTRICITY":2.668e-5,"INCLINATION":0.0044,"RA_OF_ASC_NODE":138.8596,"ARG_OF_PERICENTER":193.9436,"MEAN_ANOMALY":297.7504,"EPHEMERIS_TYPE":0,"CLASSIFICATION_TYPE":"U","NORAD_CAT_ID":40267,"ELEMENT_SET_NO":999,"REV_AT_EPOCH":4181,"BSTAR":0,"MEAN_MOTION_DOT":-2.76e-6,"MEAN_MOTION_DDOT":0},{"OBJECT_NAME":"IRNSS-1C","OBJECT_ID":"2014-061A","EPOCH":"2026-03-14T14:02:17.852640","MEAN_MOTION":1.00268237,"ECCENTRICITY":0.00201336,"INCLINATION":6.2752,"RA_OF_ASC_NODE":90.7645,"ARG_OF_PERICENTER":356.7697,"MEAN_ANOMALY":18.108,"EPHEMERIS_TYPE":0,"CLASSIFICATION_TYPE":"U","NORAD_CAT_ID":40269,"ELEMENT_SET_NO":999,"REV_AT_EPOCH":4174,"BSTAR":0,"MEAN_MOTION_DOT":-1.58e-6,"MEAN_MOTION_DDOT":0},{"OBJECT_NAME":"INTELSAT 30 (IS-30)","OBJECT_ID":"2014-062A","EPOCH":"2026-03-13T15:55:04.361952","MEAN_MOTION":1.00272886,"ECCENTRICITY":0.00016928,"INCLINATION":0.0155,"RA_OF_ASC_NODE":82.4752,"ARG_OF_PERICENTER":30.1295,"MEAN_ANOMALY":202.3988,"EPHEMERIS_TYPE":0,"CLASSIFICATION_TYPE":"U","NORAD_CAT_ID":40271,"ELEMENT_SET_NO":999,"REV_AT_EPOCH":583,"BSTAR":0,"MEAN_MOTION_DOT":-1.51e-6,"MEAN_MOTION_DDOT":0},{"OBJECT_NAME":"ARSAT 1","OBJECT_ID":"2014-062B","EPOCH":"2026-03-13T10:50:26.562912","MEAN_MOTION":1.00270188,"ECCENTRICITY":0.00013466,"INCLINATION":0.0047,"RA_OF_ASC_NODE":192.8909,"ARG_OF_PERICENTER":158.1554,"MEAN_ANOMALY":270.8211,"EPHEMERIS_TYPE":0,"CLASSIFICATION_TYPE":"U","NORAD_CAT_ID":40272,"ELEMENT_SET_NO":999,"REV_AT_EPOCH":4166,"BSTAR":0,"MEAN_MOTION_DOT":-2.6e-6,"MEAN_MOTION_DDOT":0},{"OBJECT_NAME":"EUTELSAT 53A","OBJECT_ID":"2014-064A","EPOCH":"2026-03-13T13:56:07.779840","MEAN_MOTION":1.00271854,"ECCENTRICITY":0.00013133,"INCLINATION":0.0185,"RA_OF_ASC_NODE":198.7088,"ARG_OF_PERICENTER":191.0241,"MEAN_ANOMALY":43.49,"EPHEMERIS_TYPE":0,"CLASSIFICATION_TYPE":"U","NORAD_CAT_ID":40277,"ELEMENT_SET_NO":999,"REV_AT_EPOCH":4060,"BSTAR":0,"MEAN_MOTION_DOT":9.8e-7,"MEAN_MOTION_DDOT":0},{"OBJECT_NAME":"GSAT-16","OBJECT_ID":"2014-078A","EPOCH":"2026-03-14T21:38:38.747904","MEAN_MOTION":1.00271911,"ECCENTRICITY":0.00054812,"INCLINATION":0.0268,"RA_OF_ASC_NODE":150.2012,"ARG_OF_PERICENTER":285.7961,"MEAN_ANOMALY":116.2639,"EPHEMERIS_TYPE":0,"CLASSIFICATION_TYPE":"U","NORAD_CAT_ID":40332,"ELEMENT_SET_NO":999,"REV_AT_EPOCH":4116,"BSTAR":0,"MEAN_MOTION_DOT":0,"MEAN_MOTION_DDOT":0},{"OBJECT_NAME":"DIRECTV 14","OBJECT_ID":"2014-078B","EPOCH":"2026-03-14T21:43:44.530464","MEAN_MOTION":1.00267456,"ECCENTRICITY":6.771e-5,"INCLINATION":0.0255,"RA_OF_ASC_NODE":141.7466,"ARG_OF_PERICENTER":340.4304,"MEAN_ANOMALY":277.0394,"EPHEMERIS_TYPE":0,"CLASSIFICATION_TYPE":"U","NORAD_CAT_ID":40333,"ELEMENT_SET_NO":999,"REV_AT_EPOCH":4109,"BSTAR":0,"MEAN_MOTION_DOT":0,"MEAN_MOTION_DDOT":0}]
